[
    {"name": "(Closed) - Aaron & Cecile Goldman Theater","address": "1529 16th St., NW", "zip": "20036", "city": "Washington", "state": "DC" },
    {"name": "(Closed) - Ritz Theatre","address": "114 S. Church St.", "zip": "30286", "city": "Thomaston", "state": "GA" },
    {"name": "12th Street Cinema","address": "1121 M Street", "zip": "68818", "city": "Aurora", "state": "NE" },
    {"name": "4 Mile Cinema","address": "127 Justice Center Road", "zip": "81212", "city": "Canon-City", "state": "CO" },
    {"name": "7th Generation Cinema","address": "124 North Main Street", "zip": "57625", "city": "Eagle-Butte", "state": "SD" },
    {"name": "8K Cinemas Movie City","address": "1655 Oak Tree Road", "zip": "8820", "city": "Edison", "state": "NJ" },
    {"name": "ABCinema","address": "130 West Monroe Street", "zip": "46733", "city": "Decatur", "state": "IN" },
    {"name": "ACME Screening Room","address": "25 S. Union St.", "zip": "8530", "city": "Lambertville", "state": "NJ" },
    {"name": "Agana Center Stadium Theatres","address": "Agana Shopping Center", "zip": "96910", "city": "Hagatna", "state": "GU" },
    {"name": "All Saints Cinema - Tallahassee Film Society","address": "918 Railroad Avenue", "zip": "32303", "city": "Tallahassee", "state": "FL" },
    {"name": "AMC Classic Batesville 7","address": "2250 Harrison", "zip": "72501", "city": "Batesville", "state": "AR" },
    {"name": "America Cinemas Houston","address": "535 Sharpstown Center", "zip": "77036", "city": "Houston", "state": "TX" },
    {"name": "Anthology Film Archives","address": "32 2nd Ave.", "zip": "10008", "city": "New-York", "state": "NY" },
    {"name": "Apollo Theatre - St. Marys","address": "19 North Michael Street", "zip": "15857", "city": "Saint-Marys", "state": "PA" },
    {"name": "Artcraft Theatre","address": "57 North Main Street", "zip": "46131", "city": "Franklin", "state": "IN" },
    {"name": "Athens Movie Palace","address": "1436 Decatur Pike", "zip": "37303", "city": "Athens", "state": "TN" },
    {"name": "Atlantic Cinema 5","address": "82 First Avenue", "zip": "7716", "city": "Atlantic-Highlands", "state": "NJ" },
    {"name": "Atlantic Station Cinemas","address": "Atlantic Sta Sphg Ctr.", "zip": "28512", "city": "Atlantic-Beach", "state": "NC" },
    {"name": "Auburn Public Theater","address": "8 Exchange Street", "zip": "13021", "city": "Auburn", "state": "NY" },
    {"name": "Auto Cine Santana","address": "Barrio Santana - Carretera 662 KM", "zip": "612", "city": "Arecibo", "state": "PR" },
    {"name": "Avalon Theatre","address": "1 Casino Way", "zip": "90704", "city": "Avalon", "state": "CA" },
    {"name": "B&B Theatres McPherson Cinema IV","address": "316 North Main Street", "zip": "67460", "city": "McPherson", "state": "KS" },
    {"name": "Beacon Theatre - Waveland","address": "310 US Hwy 90", "zip": "39576", "city": "Waveland", "state": "MS" },
    {"name": "Bear Pause Theater","address": "4479 County Rd 5 NW", "zip": "56452", "city": "Hackensack", "state": "MN" },
    {"name": "Bellows Falls Opera House","address": "7 Square", "zip": "5101", "city": "Bellows-Falls", "state": "VT" },
    {"name": "Big Picture Theater","address": "48 Carroll Road", "zip": "5673", "city": "Waitsfield", "state": "VT" },
    {"name": "Big Sky Drive-in - Midland","address": "6200 West Highway 80", "zip": "79706", "city": "Midland", "state": "TX" },
    {"name": "Big Time Cinemas","address": "103 S. 15th Street", "zip": "64424", "city": "Bethany", "state": "MO" },
    {"name": "Black Mesa Twin Cinema","address": "Highway 160 & 163 Kayenta Shopping Center", "zip": "86033", "city": "Kayenta", "state": "AZ" },
    {"name": "Blanchester Showplace Cinemas","address": "115 E. Main St", "zip": "45107", "city": "Blanchester", "state": "OH" },
    {"name": "Blue Water Cinemas","address": "11378 Resort Drive", "zip": "85344", "city": "Parker", "state": "AZ" },
    {"name": "Boeing Dome Theater and Planetarium","address": "300 N McLean Blvd.", "zip": "67203", "city": "Wichita", "state": "KS" },
    {"name": "Boone Theater","address": "818 Story St.", "zip": "50036", "city": "Boone", "state": "IA" },
    {"name": "Boonshoft Museum of Discovery","address": "2600 DeWeese Parkway", "zip": "45415", "city": "Dayton", "state": "OH" },
    {"name": "Brahman Theatre III","address": "1500 South Parrott Avenue", "zip": "34974", "city": "Okeechobee", "state": "FL" },
    {"name": "Brazos Cinema","address": "2801 Hwy 180 East", "zip": "76067", "city": "Mineral-Wells", "state": "TX" },
    {"name": "Bristol Omnitheatre","address": "500 South Franklin Street", "zip": "13202", "city": "Syracuse", "state": "NY" },
    {"name": "Broadway Cinema","address": "6 Claypool Hill Mall", "zip": "24609", "city": "Cedar-Bluff", "state": "VA" },
    {"name": "Brookville Theatre","address": "16 W 5th St", "zip": "47012", "city": "Brookville", "state": "IN" },
    {"name": "Bryan Theatre","address": "140 South Lynn Street", "zip": "43506", "city": "Bryan", "state": "OH" },
    {"name": "Bryant Cinema","address": "115 W. Main Street", "zip": "57221", "city": "Bryant", "state": "SD" },
    {"name": "Bulldog Cinema","address": "1100 Maple Street", "zip": "49307", "city": "Big-Rapids", "state": "MI" },
    {"name": "Burley Theatre","address": "135 West Main Street", "zip": "83318", "city": "Burley", "state": "ID" },
    {"name": "Canary Creek Cinemas","address": "870 Mallory Pkwy.", "zip": "46131", "city": "Franklin", "state": "IN" },
    {"name": "Canby Classic Cinema","address": "109 Saint Olaf Avenue North", "zip": "56220", "city": "Canby", "state": "MN" },
    {"name": "Canton Palace Theatre","address": "605 Market Avenue North", "zip": "44702", "city": "Canton", "state": "OH" },
    {"name": "Capitol Theatre - York","address": "50 North George Street", "zip": "17401", "city": "York", "state": "PA" },
    {"name": "Caribbean Cinemas - Los Colobos","address": "Carretera Estatal #3 Km 14.7 - Barrio Canobanillas", "zip": "983", "city": "Carolina", "state": "PR" },
    {"name": "Caribbean Cinemas - Plaza Carolina","address": "Avenida Jesús M. Fragoso - Sabana Abajo", "zip": "983", "city": "Carolina", "state": "PR" },
    {"name": "Caribbean Cinemas - Plaza Cayey","address": "Plaza Cayey Shopping Center", "zip": "736", "city": "Cayey", "state": "PR" },
    {"name": "Caribbean Cinemas - Plaza Guayama","address": "Carretera #3 - Km 134.6", "zip": "736", "city": "Guayama", "state": "PR" },
    {"name": "Caribbean Cinemas - Plaza Isabela","address": "Carretera #2 - Km 111.6", "zip": "662", "city": "Isabela", "state": "PR" },
    {"name": "Caribbean Cinemas - Rio Hondo","address": "Avenida Comerío - Intersección Expreso de Diego", "zip": "961", "city": "Bayamón", "state": "PR" },
    {"name": "Caribbean Cinemas - The Outlet 66 / antes Belz","address": "Carretera Estatal 18400 - The Route 66", "zip": "729", "city": "Canóvanas", "state": "PR" },
    {"name": "Caribbean Cinemas - Yauco","address": "Calle 6 #137 - Urb. El Rosario", "zip": "698", "city": "Yauco", "state": "PR" },
    {"name": "Carolina Theater","address": "222 1st Avenue NW", "zip": "28601", "city": "Hickory", "state": "NC" },
    {"name": "Carrington Youth Center","address": "890 Main Street", "zip": "58421", "city": "Carrington", "state": "ND" },
    {"name": "Casino Star Theatre","address": "78 South Main Street", "zip": "84634", "city": "Gunnison", "state": "UT" },
    {"name": "Castle Theatre","address": "112 East Main Street", "zip": "52057", "city": "Manchester", "state": "IA" },
    {"name": "Castro Theatre","address": "429 Castro St.", "zip": "94114", "city": "San-Francisco", "state": "CA" },
    {"name": "Catamount Arts","address": "115 Eastern Avenue", "zip": "5819", "city": "Saint-Johnsbury", "state": "VT" },
    {"name": "Cedar Street Cinemas","address": "114 South Cedar Street", "zip": "49854", "city": "Manistique", "state": "MI" },
    {"name": "Center Theater - Smith Center","address": "217 South Main", "zip": "66967", "city": "Smith-Center", "state": "KS" },
    {"name": "Central Cinema - Harvey","address": "810 Lincoln Avenue", "zip": "58341", "city": "Harvey", "state": "ND" },
    {"name": "Centre Theatre","address": "211 S. Central Ave.", "zip": "59270", "city": "Sidney", "state": "MT" },
    {"name": "Centre Theatre - Idaho Falls","address": "461 Park Avenue", "zip": "83402", "city": "Idaho-Falls", "state": "ID" },
    {"name": "Charmaine and Maurice Kaplan Theater","address": "1788 El Prado", "zip": "92101", "city": "San-Diego", "state": "CA" },
    {"name": "Chesapeake Movies","address": "21 Washington Square", "zip": "21620", "city": "Chestertown", "state": "MD" },
    {"name": "Cheyenne Theater - Saint Francis","address": "104 East Washington Street", "zip": "67756", "city": "Saint-Francis", "state": "KS" },
    {"name": "Chicago Filmmakers","address": "5243 North Clark Street", "zip": "60640", "city": "Chicago", "state": "IL" },
    {"name": "Cine Roosevelt","address": "Calle Ing. Ricardo Skerret esquina Calle Ing. Juan A. Davila", "zip": "936", "city": "Hato-Rey", "state": "PR" },
    {"name": "Cinema & Drafthouse","address": "31 West Broad Street", "zip": "18202", "city": "West-Hazleton", "state": "PA" },
    {"name": "Cinema 4 of Pampa","address": "1201 North Hobart", "zip": "79065", "city": "Pampa", "state": "TX" },
    {"name": "City Cinema","address": "137 Waterfront Plaza", "zip": "5855", "city": "Newport", "state": "VT" },
    {"name": "ClifTex Movie Theatre","address": "306 West 5th Street", "zip": "76634", "city": "Clifton", "state": "TX" },
    {"name": "Coalinga Theater","address": "122 West Elm Avenue", "zip": "93210", "city": "Coalinga", "state": "CA" },
    {"name": "Coliseum Theater - Graceland","address": "100 North Maple Street at Main", "zip": "50140", "city": "Lamoni", "state": "IA" },
    {"name": "Coliseum Theatre - Tillamook","address": "310 Main Street", "zip": "97141", "city": "Tillamook", "state": "OR" },
    {"name": "Colonial Theatre NH","address": "95 Main Street", "zip": "3431", "city": "Keene", "state": "NH" },
    {"name": "COSI's National Geographic Giant Screen Theater","address": "333 W. Broad Street", "zip": "43223", "city": "Columbus", "state": "OH" },
    {"name": "Coudersport Theatre","address": "11 North Main Street", "zip": "16915", "city": "Coudersport", "state": "PA" },
    {"name": "Court Theatre - Huntingdon","address": "155 Court Square", "zip": "38344", "city": "Huntingdon", "state": "TN" },
    {"name": "CresTheatre and Opera House","address": "115 Second Avenue West", "zip": "52136", "city": "Cresco", "state": "IA" },
    {"name": "Criterion Theatre and Arts Center","address": "35 Cottage Street", "zip": "4609", "city": "Bar-Harbor", "state": "ME" },
    {"name": "Crockett Cinemas 3","address": "2128 North Locust Avenue", "zip": "38464", "city": "Lawrenceburg", "state": "TN" },
    {"name": "Crystal Plaza","address": "209 S Main Street", "zip": "66067", "city": "Ottawa", "state": "KS" },
    {"name": "CTI 3D Giant Theater","address": "3050 Central Ave.", "zip": "38111", "city": "Memphis", "state": "TN" },
    {"name": "Curt's Theatre","address": "106 Main Ave.", "zip": "58367", "city": "Rolla", "state": "ND" },
    {"name": "Dependable Drive In","address": "Moon Township", "zip": "15108", "city": "Moon-Township", "state": "PA" },
    {"name": "Detroit Film Theatre","address": "5200 Woodward Avenue", "zip": "48202", "city": "Detroit", "state": "MI" },
    {"name": "Devon Theatre","address": "107 W. Mill St", "zip": "47918", "city": "Attica", "state": "IN" },
    {"name": "Diamond Theatre of Ligonier","address": "210 west main street", "zip": "15658", "city": "Ligonier", "state": "PA" },
    {"name": "Dietrich Theater","address": "60 E. Tioga Street", "zip": "18657", "city": "Tunkhannock", "state": "PA" },
    {"name": "Dome Theater Project","address": "602 Mineral Avenue", "zip": "59923", "city": "Libby", "state": "MT" },
    {"name": "Dream Theater - Russell, Kansas","address": "629 North Main Street", "zip": "67665", "city": "Russell", "state": "KS" },
    {"name": "DynaTheatre- Albuquerque","address": "1801 Mountain Road NW", "zip": "87104", "city": "Albuquerque", "state": "NM" },
    {"name": "Eastpark Cinema","address": "122 South East Boulevard - Highway 701 Business", "zip": "28328", "city": "Clinton", "state": "NC" },
    {"name": "Elbert Theatre","address": "100 South Oliver Street", "zip": "30635", "city": "Elberton", "state": "GA" },
    {"name": "Elsinore Theatre","address": "170 High Street SE", "zip": "97301", "city": "Salem", "state": "OR" },
    {"name": "Emerald Plantation Cinemas","address": "8700 Emerald Dr.", "zip": "28594", "city": "Emerald-Isle", "state": "NC" },
    {"name": "Empire Twin Theatre","address": "106 N 2nd Street", "zip": "59047", "city": "Livingston", "state": "MT" },
    {"name": "Erie Movie House","address": "3424 West Lake Road", "zip": "16505", "city": "Erie", "state": "PA" },
    {"name": "Fallon 2","address": "71 S. Maine St.", "zip": "89406", "city": "Fallon", "state": "NV" },
    {"name": "Family Theatre - East Tawas","address": "132 Newman Street", "zip": "48730", "city": "East-Tawas", "state": "MI" },
    {"name": "Film Society of Minneapolis St. Paul","address": "125 SE Main Street - Suite 341", "zip": "55414", "city": "Minneapolis", "state": "MN" },
    {"name": "Flagship Premium Cinemas - Ocean City","address": "12641 Ocean Gateway", "zip": "21842", "city": "Ocean-City", "state": "MD" },
    {"name": "Fleischmann SkyDome","address": "1650 N. Virginia St.", "zip": "89503", "city": "Reno", "state": "NV" },
    {"name": "Florence Gould Hall","address": "55 East 59th Street", "zip": "10022", "city": "New-York", "state": "NY" },
    {"name": "Flying Monkey Movie House and Performance","address": "39 Main Street", "zip": "3264", "city": "Plymouth", "state": "NH" },
    {"name": "Fort Payne Cinemas","address": "2715 N Gault Avenue", "zip": "35967", "city": "Fort-Payne", "state": "AL" },
    {"name": "Fosston Theatre","address": "105 W 1st Street", "zip": "56542", "city": "Fosston", "state": "MN" },
    {"name": "Fox 5 Theatre","address": "313 Poplar St", "zip": "80751", "city": "Sterling", "state": "CO" },
    {"name": "Fox Peak Cinema","address": "501 East Williams Avenue", "zip": "89406", "city": "Fallon", "state": "NV" },
    {"name": "Frank Theatres Montgomeryville Stadium 12","address": "750 Montgomery Glen Drive", "zip": "19446", "city": "Lansdale", "state": "PA" },
    {"name": "Frank Theatres Rivertowne Stadium 12","address": "220 Rivertown Blvd", "zip": "29528", "city": "Conway", "state": "SC" },
    {"name": "Frank Theatres Tilton Theatres & IMAX","address": "331 Tilton Rd", "zip": "8225", "city": "Northfield", "state": "NJ" },
    {"name": "Franklin Theatre","address": "419 Main St.", "zip": "37064", "city": "Franklin", "state": "TN" },
    {"name": "Frontier Stage","address": "305 E. Main St.", "zip": "67642", "city": "Hill-City", "state": "KS" },
    {"name": "Galaxy Twin - Thief River Falls","address": "15469 Highway 59", "zip": "56701", "city": "Thief-River-Falls", "state": "MN" },
    {"name": "Ganado Theatre","address": "120 South Street", "zip": "77962", "city": "Ganado", "state": "TX" },
    {"name": "Gentry Cinema","address": "214 West Gentry Avenue", "zip": "74426", "city": "Checotah", "state": "OK" },
    {"name": "Goen Cinemas Tuba City","address": "6 Cinema Drive", "zip": "86045", "city": "Tuba-City", "state": "AZ" },
    {"name": "Goen Cinemas Window Rock","address": "Hwy 264 & Rt 12", "zip": "86515", "city": "Window-Rock", "state": "AZ" },
    {"name": "Gold Hill Theatres 1 & 2","address": "615 West Midland Avenue", "zip": "80863", "city": "Woodland-Park", "state": "CO" },
    {"name": "Graham Cinema","address": "119 N. Main St.", "zip": "27253", "city": "Graham", "state": "NC" },
    {"name": "Granada Theater - Oxford","address": "409 Ogden Street", "zip": "68967", "city": "Oxford", "state": "NE" },
    {"name": "Grand Canyon IMAX Theatre","address": "450 State Route 64", "zip": "86023", "city": "Grand-Canyon", "state": "AZ" },
    {"name": "Grand Theater","address": "212 East Robinson Street", "zip": "50138", "city": "Knoxville", "state": "IA" },
    {"name": "H & S Theatre","address": "816 Manvel Avenue", "zip": "74834", "city": "Chandler", "state": "OK" },
    {"name": "Harvard Film Archive","address": "24 Quincy Street Harvard University", "zip": "2141", "city": "Cambridge", "state": "MA" },
    {"name": "Hastings Museum Theatre","address": "1330 North Burlington Avenue", "zip": "68902", "city": "Hastings", "state": "NE" },
    {"name": "Henry Ford IMAX","address": "20900 Oakwood Blvd", "zip": "48124", "city": "Dearborn", "state": "MI" },
    {"name": "Historic Howell Theater","address": "315 East Grand River Avenue", "zip": "48843", "city": "Howell", "state": "MI" },
    {"name": "Historic Lake Theatre","address": "318 Elm Avenue", "zip": "55767", "city": "Moose-Lake", "state": "MN" },
    {"name": "Holland Plaza Theatre","address": "717 8th Street SE", "zip": "51041", "city": "Orange-City", "state": "IA" },
    {"name": "Hollywood Cinema","address": "6 Hollywood Blvd.", "zip": "24112", "city": "Martinsville", "state": "VA" },
    {"name": "Hollywood Cinema 4","address": "5509 Oregon Ave.", "zip": "21227", "city": "Arbutus", "state": "MD" },
    {"name": "Hometown Cinemas - Gun Barrel City","address": "215 Heritage Parkway", "zip": "75156", "city": "Gun-Barrel-City", "state": "TX" },
    {"name": "Hood River Cinemas","address": "Fifth and Columbia St.", "zip": "97031", "city": "Hood-River", "state": "OR" },
    {"name": "Illinois Theater","address": "204 N. Mauvaisterre St.", "zip": "62650", "city": "Jacksonville", "state": "IL" },
    {"name": "IMAX & Planetarium - Milwaukee Public Museum Center","address": "800 West Wells Street", "zip": "53233", "city": "Milwaukee", "state": "WI" },
    {"name": "IMAX - Louisiana Art & Science Museum","address": "100 South River Road", "zip": "70802", "city": "Baton-Rouge", "state": "LA" },
    {"name": "IMAX 3D Theatre at Jordan's Furniture - Natick","address": "1 Underprice Way", "zip": "1760", "city": "Natick", "state": "MA" },
    {"name": "IMAX Dome Gulf Coast Exploreum","address": "65 Government Street", "zip": "36602", "city": "Mobile", "state": "AL" },
    {"name": "IMAX Theatre at Discovery Place","address": "301 North Tryon Street", "zip": "28202", "city": "Charlotte", "state": "NC" },
    {"name": "IMAX Theatre at Tropicana","address": "2831 Boardwalk", "zip": "8401", "city": "Atlantic-City", "state": "NJ" },
    {"name": "IMAX Virginia Air & Space Center","address": "600 Settlers Landing Road", "zip": "23669", "city": "Hampton", "state": "VA" },
    {"name": "Indiana University Cinema","address": "1213 E. 7th St.", "zip": "47405", "city": "Bloomington", "state": "IN" },
    {"name": "Island Theatre","address": "4074 South Main Street", "zip": "23336", "city": "Chincoteague", "state": "VA" },
    {"name": "IU Woodburn Hall Theater - The Ryder Film Series","address": "Seventh Street - On campus - Next to Lilly Library", "zip": "47405", "city": "Bloomington", "state": "IN" },
    {"name": "Jax Jr. Cinemas","address": "32 Main Street", "zip": "3561", "city": "Littleton", "state": "NH" },
    {"name": "Julia 4 Cinemas","address": "1110 South Irby Street", "zip": "29501", "city": "Florence", "state": "SC" },
    {"name": "Kentucky Science Center","address": "727 West Main Street", "zip": "40202", "city": "Louisville", "state": "KY" },
    {"name": "King City Cinemas","address": "200 Broadway Street", "zip": "93930", "city": "King-City", "state": "CA" },
    {"name": "Knickerbocker Theatre at Hope College","address": "86 East 8th Street", "zip": "49423", "city": "Holland", "state": "MI" },
    {"name": "Kuhn Cinema","address": "668 South Main Street", "zip": "97355", "city": "Lebanon", "state": "OR" },
    {"name": "KYOVA 10 Theatre","address": "10699 US Rt. 60", "zip": "41102", "city": "Ashland", "state": "KY" },
    {"name": "Laie Palms Cinemas","address": "55-510 Kamehameha Hwy #18", "zip": "96762", "city": "Laie", "state": "HI" },
    {"name": "Lake Theatre","address": "115 E. Dwight St.", "zip": "48750", "city": "Oscoda", "state": "MI" },
    {"name": "LeFrak IMAX - American Museum of Natural History","address": "175-208 Central Park Way", "zip": "10024", "city": "New-York", "state": "NY" },
    {"name": "Lemoore Stadium Cinemas","address": "400 Follett Street", "zip": "93245", "city": "Lemoore", "state": "CA" },
    {"name": "Leroy R. & Rose W. Grumman IMAX Dome Theater","address": "Charles Lindbergh Boulevard", "zip": "11530", "city": "Garden-City", "state": "NY" },
    {"name": "Lewis Theatre","address": "865 Court Street North", "zip": "24901", "city": "Lewisburg", "state": "WV" },
    {"name": "Lexington Princess Theatre","address": "72 South Main Street", "zip": "38351", "city": "Lexington", "state": "TN" },
    {"name": "Liberty Theatre","address": "9 W Main", "zip": "73015", "city": "Carnegie", "state": "OK" },
    {"name": "Library Theatre - Warren","address": "302 Third Avenue West", "zip": "16365", "city": "Warren", "state": "PA" },
    {"name": "Lincoln Theater","address": "712 1st Street", "zip": "98273", "city": "Mount-Vernon", "state": "WA" },
    {"name": "Little Cinema - Berkshire Museum","address": "39 South Street", "zip": "1201", "city": "Pittsfield", "state": "MA" },
    {"name": "Lone Peak Cinema","address": "50 Ousel Falls Road", "zip": "59716", "city": "Big-Sky", "state": "MT" },
    {"name": "Lorain Theater","address": "714 Main Street", "zip": "57313", "city": "Armour", "state": "SD" },
    {"name": "Lyric Theatre","address": "113 Main St", "zip": "79081", "city": "Spearman", "state": "TX" },
    {"name": "Magic Lantern Cinema & Screening Rooms","address": "100 E. 2nd St.", "zip": "83340", "city": "Ketchum", "state": "ID" },
    {"name": "Main St. 3 Theatre","address": "401 9th Street", "zip": "51201", "city": "Sheldon", "state": "IA" },
    {"name": "Main Street Cinema","address": "387 E. Main St.", "zip": "41224", "city": "Inez", "state": "KY" },
    {"name": "Majestic Theater","address": "215 Dewey Avenue", "zip": "59917", "city": "Eureka", "state": "MT" },
    {"name": "Mall Cinemas","address": "2150 Martin Luther King Jr Boulevard", "zip": "32405", "city": "Panama-City", "state": "FL" },
    {"name": "Manship Theatre","address": "100 Lafayette St.", "zip": "70801", "city": "Baton-Rouge", "state": "LA" },
    {"name": "Mars Theatre","address": "106 South Laurel Street", "zip": "31329", "city": "Springfield", "state": "GA" },
    {"name": "Marshall Cinema","address": "118 E. North Street", "zip": "65340", "city": "Marshall", "state": "MO" },
    {"name": "Maveli Cinemas","address": "Ramapo Cultural & Arts Center", "zip": "10977", "city": "Spring-Valley", "state": "NY" },
    {"name": "Max Theatres","address": "338 9th Street", "zip": "51249", "city": "Sibley", "state": "IA" },
    {"name": "Mayaguez Town Center","address": "252 Post Street", "zip": "680", "city": "Mayaguez", "state": "PR" },
    {"name": "Maysles Cinema","address": "343 Lenox Ave.", "zip": "10027", "city": "New-York", "state": "NY" },
    {"name": "McKenna Youth & Activity Center","address": "311 Main Street", "zip": "67657", "city": "Palco", "state": "KS" },
    {"name": "Medal of Honor Theater - NMMC","address": "18900 Jefferson Davis Highway", "zip": "22172", "city": "Triangle", "state": "VA" },
    {"name": "Melba Theatre","address": "115 West Main Street", "zip": "72501", "city": "Batesville", "state": "AR" },
    {"name": "Michigan Theater - Ann Arbor (Annex)","address": "603 East Liberty", "zip": "48104", "city": "Ann-Arbor", "state": "MI" },
    {"name": "Micronesia Mall 10","address": "1088 W Marine Dr", "zip": "96912", "city": "Dededo", "state": "GU" },
    {"name": "Milford Cinema","address": "945 East Summit Road", "zip": "48381", "city": "Milford", "state": "MI" },
    {"name": "MIT Film Series","address": "77 Massachusetts Avenue", "zip": "2139", "city": "Cambridge", "state": "MA" },
    {"name": "Montehiedra","address": "Ave. Los Romeros", "zip": "926", "city": "San-Juan", "state": "PR" },
    {"name": "Moody Gardens Giant Screen Theater","address": "1 Hope Blvd.", "zip": "77554", "city": "Galveston", "state": "TX" },
    {"name": "Moon Lite Drive-In Theater","address": "5056 North Lafayette Avenue", "zip": "47805", "city": "Terre-Haute", "state": "IN" },
    {"name": "Morris Theatre","address": "108 N Lamar St", "zip": "75638", "city": "Daingerfield", "state": "TX" },
    {"name": "Movie and Dinner","address": "10893 West Northern Quest Drive", "zip": "99001", "city": "Airway-Heights", "state": "WA" },
    {"name": "Moxie Cinema LLC","address": "431 S. Jefferson, #108", "zip": "65806", "city": "Springfield", "state": "MO" },
    {"name": "Museum Of Modern Art (MOMA)","address": "11 West 53rd Street", "zip": "10019", "city": "New-York", "state": "NY" },
    {"name": "Museum of Science - Mugar Omni Theater","address": "1 Science Park", "zip": "2114", "city": "Boston", "state": "MA" },
    {"name": "New Horizons Dome Theatre","address": "New Mexico Hwy 2001", "zip": "88310", "city": "Alamogordo", "state": "NM" },
    {"name": "Next Act Cinema at the Pikes","address": "921 Reisterstown Road", "zip": "21208", "city": "Pikesville", "state": "MD" },
    {"name": "Northwest Film Forum","address": "1515 Twelfth Ave", "zip": "98112", "city": "Seattle", "state": "WA" },
    {"name": "Nova Theatre - Stockton","address": "517 Main Street", "zip": "67669", "city": "Stockton", "state": "KS" },
    {"name": "Oak Park Theater","address": "1500 4th Avenue Northwest", "zip": "58701", "city": "Minot", "state": "ND" },
    {"name": "Ocean Reef Cultural Center","address": "200 Anchor Drive", "zip": "33037", "city": "Key-Largo", "state": "FL" },
    {"name": "Odyssey Grand 8 Theatre","address": "1201 5th Street SE", "zip": "57201", "city": "Watertown", "state": "SD" },
    {"name": "Oklahoma City Museum of Art","address": "415 Couch Drive", "zip": "73102", "city": "Oklahoma-City", "state": "OK" },
    {"name": "Old Town Music Hall","address": "140 Richmond Street", "zip": "90245", "city": "El-Segundo", "state": "CA" },
    {"name": "Omni Cinemas 8","address": "3729 Sycamore Dairy Road", "zip": "28303", "city": "Fayetteville", "state": "NC" },
    {"name": "Omnimax @ St. Louis Science Center","address": "5050 Oakland Ave", "zip": "63110", "city": "Saint-Louis", "state": "MO" },
    {"name": "Omnitheater - Science Museum of Minnesota","address": "120 West Kellogg Boulevard", "zip": "55102", "city": "Saint-Paul", "state": "MN" },
    {"name": "Onarga Theatre","address": "101 W. Seminary Ave.", "zip": "60955", "city": "Onarga", "state": "IL" },
    {"name": "Opera House Theatre - DeWitt","address": "716 Sixth Avenue", "zip": "52742", "city": "DeWitt", "state": "IA" },
    {"name": "Palace Theater - Lemmon","address": "209 Main Avenue", "zip": "57638", "city": "Lemmon", "state": "SD" },
    {"name": "Panguitch GEM Theater","address": "105 North Main Street", "zip": "84759", "city": "Panguitch", "state": "UT" },
    {"name": "Paradise Community Theatre","address": "237 Union Street South", "zip": "55051", "city": "Mora", "state": "MN" },
    {"name": "Paramount Theater - Idaho Falls","address": "2085 Niagara Street", "zip": "83404", "city": "Idaho-Falls", "state": "ID" },
    {"name": "Parisian Theatre","address": "1075 Jim Adams Dr,", "zip": "38242", "city": "Paris", "state": "TN" },
    {"name": "Park 12 Cobb Stadium Cinemas","address": "2925 W. Frank Gordy Pkwy.", "zip": "30066", "city": "Marietta", "state": "GA" },
    {"name": "Park City Film Series","address": "1255 Park Avenue", "zip": "84060", "city": "Park-City", "state": "UT" },
    {"name": "Pella Cinemas","address": "708 Main Street", "zip": "50219", "city": "Pella", "state": "IA" },
    {"name": "Penn Theatre","address": "760 Penniman Avenue", "zip": "48170", "city": "Plymouth", "state": "MI" },
    {"name": "Peterborough Community Theater","address": "6 School St.", "zip": "3458", "city": "Peterborough", "state": "NH" },
    {"name": "Phoenix Big Cinemas Marlow 6","address": "3899 Branch Ave.", "zip": "20748", "city": "Temple-Hills", "state": "MD" },
    {"name": "Phoenix Theatre - Houston","address": "16657 Hwy. B", "zip": "65483", "city": "Houston", "state": "MO" },
    {"name": "Picayune Cinema 4","address": "997 Cooper Road", "zip": "39466", "city": "Picayune", "state": "MS" },
    {"name": "Pines Theatre","address": "4673 West Houghton Lake Drive - Corner M-55 & Town Line Road", "zip": "48629", "city": "Houghton-Lake", "state": "MI" },
    {"name": "Pioneer Theatre - Manteo","address": "115 Budleigh Street", "zip": "27954", "city": "Manteo", "state": "NC" },
    {"name": "Plaza Cinema - Grenada","address": "1301-C Sunset Drive", "zip": "38901", "city": "Grenada", "state": "MS" },
    {"name": "Premiere 6 Theater","address": "810 N.W. Broad St.", "zip": "37129", "city": "Murfreesboro", "state": "TN" },
    {"name": "Princess Theater","address": "116 East Lafayette Street", "zip": "62681", "city": "Rushville", "state": "IL" },
    {"name": "Princess Theatre","address": "104 North 3rd Street", "zip": "82633", "city": "Douglas", "state": "WY" },
    {"name": "Raye Theatre","address": "1707 Avenue M", "zip": "78861", "city": "Hondo", "state": "TX" },
    {"name": "Red Oak Grand Theatre","address": "410 Coolbaugh Street", "zip": "51566", "city": "Red-Oak", "state": "IA" },
    {"name": "Reel Cinema - Wofford Heights","address": "6742 Wofford Heights Boulevard", "zip": "93285", "city": "Wofford-Heights", "state": "CA" },
    {"name": "Reel Deal Movie Theater","address": "2551 Central Ave.", "zip": "87544", "city": "Los-Alamos", "state": "NM" },
    {"name": "ReelTime Cinema - Brookfield","address": "620 West Lockling", "zip": "64628", "city": "Brookfield", "state": "MO" },
    {"name": "Regal Edwards Brea West","address": "255 West Birch Street", "zip": "92821", "city": "Brea", "state": "CA" },
    {"name": "Rex II Theater","address": "129 Buffalo Street", "zip": "74729", "city": "Caddo", "state": "OK" },
    {"name": "Rialto Theatre","address": "80 Main Street", "zip": "3584", "city": "Lancaster", "state": "NH" },
    {"name": "Rialto Theatre - Missouri Valley","address": "405 East Erie Street", "zip": "51555", "city": "Missouri-Valley", "state": "IA" },
    {"name": "Rio - Plaza IV - Alice","address": "2975 East Main Street", "zip": "78332", "city": "Alice", "state": "TX" },
    {"name": "Ritz Cinema","address": "116 South Van Rensselaer Street", "zip": "47978", "city": "Rensselaer", "state": "IN" },
    {"name": "Ritz Theatre - Wellington","address": "902 East Avenue", "zip": "79095", "city": "Wellington", "state": "TX" },
    {"name": "Rogers Cinemas - Marshfield","address": "419 South Central Avenue", "zip": "54449", "city": "Marshfield", "state": "WI" },
    {"name": "Rose Bowl Theatre","address": "611 15th Avenue", "zip": "68939", "city": "Franklin", "state": "NE" },
    {"name": "Rose Theatre","address": "2802 W. Towne Street", "zip": "59330", "city": "Glendive", "state": "MT" },
    {"name": "Roso Theater","address": "310 Main Avenue North", "zip": "56751", "city": "Roseau", "state": "MN" },
    {"name": "Rouman Cinema","address": "1205 Lincoln St.", "zip": "54501", "city": "Rhinelander", "state": "WI" },
    {"name": "Roxy Theatre Lock Haven","address": "314 E. Main Street", "zip": "17745", "city": "Lock-Haven", "state": "PA" },
    {"name": "Royal Twin - Pauls Valley","address": "117 East Paul Avenue", "zip": "73075", "city": "Pauls-Valley", "state": "OK" },
    {"name": "Salida SteamPlant Event Center","address": "220 West Sackett Avenue", "zip": "81201", "city": "Salida", "state": "CO" },
    {"name": "Sands Theatre","address": "211 Clayton St.", "zip": "80723", "city": "Brush", "state": "CO" },
    {"name": "Santikos Cibolo","address": "18124 I-35", "zip": "78108", "city": "Cibolo", "state": "TX" },
    {"name": "Schulman's Movie Bowl Grille - Bay City","address": "6655 East 7th Street", "zip": "77414", "city": "Bay-City", "state": "TX" },
    {"name": "Schulman's Movie Bowl Grille - Sherman","address": "110 E FM 1417", "zip": "75090", "city": "Sherman", "state": "TX" },
    {"name": "Sci-Port IMAX Dome","address": "820 Clyde Fant Parkway", "zip": "71101", "city": "Shreveport", "state": "LA" },
    {"name": "SFMOMA - Phyllis Wattis Theater","address": "151 3rd St.", "zip": "94103", "city": "San-Francisco", "state": "CA" },
    {"name": "Shawano Moonlight Outdoor Theater","address": "1494 East Green Bay Street", "zip": "54166", "city": "Shawano", "state": "WI" },
    {"name": "Skirball Cultural Center","address": "2701 North Sepulveda Boulevard", "zip": "90049", "city": "Los-Angeles", "state": "CA" },
    {"name": "Skyview Cineplex","address": "970 South Washington Street", "zip": "83110", "city": "Afton", "state": "WY" },
    {"name": "Smithsonian - Freer Gallery of Art & Arthur M. Sackler Gallery","address": "1050 Independence Avenue SW", "zip": "20013", "city": "Washington", "state": "DC" },
    {"name": "South Bay FIlm Society @ AMC Rolling Hills","address": "2591 Airport Drive", "zip": "90505", "city": "Torrance", "state": "CA" },
    {"name": "Southside Cinemas","address": "275 Southside Mall Road", "zip": "41503", "city": "South-Williamson", "state": "KY" },
    {"name": "Sperry's Moviehouse 12","address": "301 Huron Avenue", "zip": "48060", "city": "Port-Huron", "state": "MI" },
    {"name": "Stanley Theater","address": "131 North Broadway", "zip": "54768", "city": "Stanley", "state": "WI" },
    {"name": "Star Cinema Grill - Richmond/Katy","address": "22125 FM 1093", "zip": "77407", "city": "Richmond", "state": "TX" },
    {"name": "Starlight Cinema - Independence","address": "2401 Swan Lake Boulevard", "zip": "50644", "city": "Independence", "state": "IA" },
    {"name": "Stars & Stripes Drive-In Theater","address": "5101 Hwy. 84", "zip": "79416", "city": "Lubbock", "state": "TX" },
    {"name": "State Theater","address": "706 C Avenue", "zip": "68826", "city": "Central-City", "state": "NE" },
    {"name": "State Theatre","address": "617 Broadway Street", "zip": "67550", "city": "Larned", "state": "KS" },
    {"name": "Strand Theater","address": "710 Front Street", "zip": "29442", "city": "Georgetown", "state": "SC" },
    {"name": "Sun Theatre","address": "421 West Ave.", "zip": "68949", "city": "Holdrege", "state": "NE" },
    {"name": "Sun Theatre","address": "427 N. Lincoln Ave.", "zip": "68467", "city": "York", "state": "NE" },
    {"name": "Taos Community Auditorium - Taos Center for the Arts","address": "133 Paseo del Pueblo Norte", "zip": "87571", "city": "Taos", "state": "NM" },
    {"name": "Tell City Twin","address": "122 Hwy 66 East", "zip": "47586", "city": "Tell-City", "state": "IN" },
    {"name": "Tennessee Theatre","address": "604 South Gay Street", "zip": "37902", "city": "Knoxville", "state": "TN" },
    {"name": "Tenth Frame Cinemas","address": "930 Camargo Road", "zip": "40353", "city": "Mount-Sterling", "state": "KY" },
    {"name": "The Avalon Theatre","address": "5612 Connecticut Ave. NW", "zip": "20015", "city": "Washington", "state": "DC" },
    {"name": "The Bicknell Theater","address": "11 East Main Street", "zip": "84715", "city": "Bicknell", "state": "UT" },
    {"name": "The Century Theater - Fort Kent","address": "13 Hall Street", "zip": "4743", "city": "Fort-Kent", "state": "ME" },
    {"name": "The Dome at the Science Museum of Virginia","address": "2500 W. Broad Street", "zip": "23220", "city": "Richmond", "state": "VA" },
    {"name": "The Film Society at St. Anthony Main Theatre","address": "115 Main Street SE", "zip": "55414", "city": "Minneapolis", "state": "MN" },
    {"name": "The Grand Theater - Yoakum","address": "212 West May Street", "zip": "77995", "city": "Yoakum", "state": "TX" },
    {"name": "The Gretna Theatre","address": "107 North Main Street", "zip": "24557", "city": "Gretna", "state": "VA" },
    {"name": "The Iowa Theatre","address": "121 North John Wayne Drive", "zip": "50273", "city": "Winterset", "state": "IA" },
    {"name": "The Luna Theater","address": "250 Jackson St. Unit 402", "zip": "1852", "city": "Lowell", "state": "MA" },
    {"name": "The Lund Theatre","address": "119 North Main Street", "zip": "57070", "city": "Viborg", "state": "SD" },
    {"name": "The Nevada Theatre Film Series","address": "401 Broad Street", "zip": "95959", "city": "Nevada-City", "state": "CA" },
    {"name": "The Speed Art Museum","address": "2035 South Third Street", "zip": "40208", "city": "Louisville", "state": "KY" },
    {"name": "The Springs Stadium 4","address": "573 S. Arnold F. Habig Blvd.", "zip": "47432", "city": "French-Lick", "state": "IN" },
    {"name": "Theatres of Whitewater","address": "151 E. Pearson Ln.", "zip": "53190", "city": "Whitewater", "state": "WI" },
    {"name": "Tiffany Theater","address": "317 South 10th Ave.", "zip": "68822", "city": "Broken-Bow", "state": "NE" },
    {"name": "Tioga Movie Theatre","address": "15 1st Street Northeast", "zip": "58852", "city": "Tioga", "state": "ND" },
    {"name": "Tobie Cinemas","address": "226 East Main Street", "zip": "38668", "city": "Senatobia", "state": "MS" },
    {"name": "Tomahawk Cinema","address": "17 West Wisconsin Avenue", "zip": "54487", "city": "Tomahawk", "state": "WI" },
    {"name": "Tower Theatre","address": "876 E 900 South", "zip": "84105", "city": "Salt-Lake-City", "state": "UT" },
    {"name": "Town & Country Four Theatre","address": "3525 Fayetteville Rd.", "zip": "28358", "city": "Lumberton", "state": "NC" },
    {"name": "Town Hall Theatre","address": "469 Main Street", "zip": "95971", "city": "Quincy", "state": "CA" },
    {"name": "Traer Theatre","address": "516 2nd Street", "zip": "50675", "city": "Traer", "state": "IA" },
    {"name": "Trenton Cinema 3","address": "1204 Oklahoma Avenue", "zip": "64683", "city": "Trenton", "state": "MO" },
    {"name": "Trinity County Movie Theatre","address": "586 Main Street", "zip": "96093", "city": "Weaverville", "state": "CA" },
    {"name": "Twin Valley Players Colonnade","address": "269 Center Street", "zip": "17061", "city": "Millersburg", "state": "PA" },
    {"name": "Underground Cinema","address": "230 Capitol Street", "zip": "25301", "city": "Charleston", "state": "WV" },
    {"name": "University of NH-MUB","address": "83 Main Street", "zip": "3824", "city": "Durham", "state": "NH" },
    {"name": "Urbana Gloria Theatre","address": "216 South Main Street", "zip": "43078", "city": "Urbana", "state": "OH" },
    {"name": "US Space and Rocket Center","address": "1 Tranquility Base", "zip": "35805", "city": "Huntsville", "state": "AL" },
    {"name": "USCB Center for the Arts","address": "805 Carteret Street", "zip": "29902", "city": "Beaufort", "state": "SC" },
    {"name": "UW Cinematheque","address": "821University Ave.", "zip": "53706", "city": "Madison", "state": "WI" },
    {"name": "Van Wert Cinema 5","address": "10709 Lincoln Highway", "zip": "45891", "city": "Van-Wert", "state": "OH" },
    {"name": "Vernon Plaza","address": "1717 Cumberland Street", "zip": "76384", "city": "Vernon", "state": "TX" },
    {"name": "VisArt - Charlotte Film Society","address": "3104 Eastway Drive", "zip": "28205", "city": "Charlotte", "state": "NC" },
    {"name": "Vision II Movie Theatre","address": "327 North Main St.", "zip": "50049", "city": "Chariton", "state": "IA" },
    {"name": "Walker Art Center","address": "1750 Hennepin Ave.", "zip": "55403", "city": "Minneapolis", "state": "MN" },
    {"name": "Waynesboro Theatre","address": "75 W. Main Street", "zip": "17268", "city": "Waynesboro", "state": "PA" },
    {"name": "Wealthy Theatre","address": "1130 Wealthy SE", "zip": "49506", "city": "Grand-Rapids", "state": "MI" },
    {"name": "Wellborne Cinema Four","address": "324 East House Street", "zip": "77511", "city": "Alvin", "state": "TX" },
    {"name": "Wellington Regent Theater","address": "114 West Lincoln Avenue", "zip": "67152", "city": "Wellington", "state": "KS" },
    {"name": "Wells Fargo IMAX Theatre at Marbles","address": "201 E. Hargett Street", "zip": "27601", "city": "Raleigh", "state": "NC" },
    {"name": "Westwood 8","address": "2809 S. 125th Ave., Ste 297", "zip": "68144", "city": "Omaha", "state": "NE" },
    {"name": "Willcox Historic Theatre","address": "134 N. Railroad Ave.", "zip": "85643", "city": "Willcox", "state": "AZ" },
    {"name": "Woodstock Town Hall Theatre","address": "31 The Green", "zip": "5091", "city": "Woodstock", "state": "VT" },
    {"name": "World of Sports - Cinema 1 & 2","address": "2030 Bill Tuck Hwy", "zip": "24592", "city": "South-Boston", "state": "VA" },
    {"name": "Wortham Giant Screen Theatre","address": "5555 Hermann Park Dr.", "zip": "77030", "city": "Houston", "state": "TX" }    
]